<?xml version="1.0" encoding="UTF-8"?>
<ndm xmlns:xsi="http://www.w3.org/2001/XMLSchema-instance" xsi:noNamespaceSchemaLocation="https://sanaregistry.org/r/ndmxml_unqualified/ndmxml-2.0.0-master-2.0.xsd">
<omm id="CCSDS_OMM_VERS" version="2.0">
<header><CREATION_DATE/><ORIGINATOR/></header><body><segment><metadata><OBJECT_NAME>IRIDIUM 116</OBJECT_NAME><OBJECT_ID>2017-083C</OBJECT_ID><CENTER_NAME>EARTH</CENTER_NAME><REF_FRAME>TEME</REF_FRAME><TIME_SYSTEM>UTC</TIME_SYSTEM><MEAN_ELEMENT_THEORY>SGP4</MEAN_ELEMENT_THEORY></metadata><data><meanElements><EPOCH>2024-09-24T20:33:14.934240</EPOCH><MEAN_MOTION>14.34217141</MEAN_MOTION><ECCENTRICITY>.0002297</ECCENTRICITY><INCLINATION>86.3978</INCLINATION><RA_OF_ASC_NODE>225.3887</RA_OF_ASC_NODE><ARG_OF_PERICENTER>88.4313</ARG_OF_PERICENTER><MEAN_ANOMALY>271.7146</MEAN_ANOMALY></meanElements><tleParameters><EPHEMERIS_TYPE>0</EPHEMERIS_TYPE><CLASSIFICATION_TYPE>U</CLASSIFICATION_TYPE><NORAD_CAT_ID>43072</NORAD_CAT_ID><ELEMENT_SET_NO>999</ELEMENT_SET_NO><REV_AT_EPOCH>35382</REV_AT_EPOCH><BSTAR>.16086E-3</BSTAR><MEAN_MOTION_DOT>.47E-5</MEAN_MOTION_DOT><MEAN_MOTION_DDOT>0</MEAN_MOTION_DDOT></tleParameters></data></segment></body></omm>
<omm id="CCSDS_OMM_VERS" version="2.0">
<header><CREATION_DATE/><ORIGINATOR/></header><body><segment><metadata><OBJECT_NAME>IRIDIUM 130</OBJECT_NAME><OBJECT_ID>2017-083D</OBJECT_ID><CENTER_NAME>EARTH</CENTER_NAME><REF_FRAME>TEME</REF_FRAME><TIME_SYSTEM>UTC</TIME_SYSTEM><MEAN_ELEMENT_THEORY>SGP4</MEAN_ELEMENT_THEORY></metadata><data><meanElements><EPOCH>2024-09-24T19:47:34.830816</EPOCH><MEAN_MOTION>14.34216985</MEAN_MOTION><ECCENTRICITY>.0002263</ECCENTRICITY><INCLINATION>86.3986</INCLINATION><RA_OF_ASC_NODE>225.6156</RA_OF_ASC_NODE><ARG_OF_PERICENTER>91.2578</ARG_OF_PERICENTER><MEAN_ANOMALY>268.8878</MEAN_ANOMALY></meanElements><tleParameters><EPHEMERIS_TYPE>0</EPHEMERIS_TYPE><CLASSIFICATION_TYPE>U</CLASSIFICATION_TYPE><NORAD_CAT_ID>43073</NORAD_CAT_ID><ELEMENT_SET_NO>999</ELEMENT_SET_NO><REV_AT_EPOCH>35376</REV_AT_EPOCH><BSTAR>.17399E-3</BSTAR><MEAN_MOTION_DOT>.507E-5</MEAN_MOTION_DOT><MEAN_MOTION_DDOT>0</MEAN_MOTION_DDOT></tleParameters></data></segment></body></omm>
<omm id="CCSDS_OMM_VERS" version="2.0">
<header><CREATION_DATE/><ORIGINATOR/></header><body><segment><metadata><OBJECT_NAME>IRIDIUM 151</OBJECT_NAME><OBJECT_ID>2017-083E</OBJECT_ID><CENTER_NAME>EARTH</CENTER_NAME><REF_FRAME>TEME</REF_FRAME><TIME_SYSTEM>UTC</TIME_SYSTEM><MEAN_ELEMENT_THEORY>SGP4</MEAN_ELEMENT_THEORY></metadata><data><meanElements><EPOCH>2024-09-25T10:15:14.839776</EPOCH><MEAN_MOTION>14.34217161</MEAN_MOTION><ECCENTRICITY>.0002386</ECCENTRICITY><INCLINATION>86.3983</INCLINATION><RA_OF_ASC_NODE>225.1936</RA_OF_ASC_NODE><ARG_OF_PERICENTER>82.3517</ARG_OF_PERICENTER><MEAN_ANOMALY>277.7950</MEAN_ANOMALY></meanElements><tleParameters><EPHEMERIS_TYPE>0</EPHEMERIS_TYPE><CLASSIFICATION_TYPE>U</CLASSIFICATION_TYPE><NORAD_CAT_ID>43074</NORAD_CAT_ID><ELEMENT_SET_NO>999</ELEMENT_SET_NO><REV_AT_EPOCH>35387</REV_AT_EPOCH><BSTAR>.12838E-3</BSTAR><MEAN_MOTION_DOT>.379E-5</MEAN_MOTION_DOT><MEAN_MOTION_DDOT>0</MEAN_MOTION_DDOT></tleParameters></data></segment></body></omm>
<omm id="CCSDS_OMM_VERS" version="2.0">
<header><CREATION_DATE/><ORIGINATOR/></header><body><segment><metadata><OBJECT_NAME>IRIDIUM 134</OBJECT_NAME><OBJECT_ID>2017-083F</OBJECT_ID><CENTER_NAME>EARTH</CENTER_NAME><REF_FRAME>TEME</REF_FRAME><TIME_SYSTEM>UTC</TIME_SYSTEM><MEAN_ELEMENT_THEORY>SGP4</MEAN_ELEMENT_THEORY></metadata><data><meanElements><EPOCH>2024-09-25T09:29:35.038752</EPOCH><MEAN_MOTION>14.34219734</MEAN_MOTION><ECCENTRICITY>.000229</ECCENTRICITY><INCLINATION>86.3984</INCLINATION><RA_OF_ASC_NODE>225.2063</RA_OF_ASC_NODE><ARG_OF_PERICENTER>89.9439</ARG_OF_PERICENTER><MEAN_ANOMALY>270.2019</MEAN_ANOMALY></meanElements><tleParameters><EPHEMERIS_TYPE>0</EPHEMERIS_TYPE><CLASSIFICATION_TYPE>U</CLASSIFICATION_TYPE><NORAD_CAT_ID>43075</NORAD_CAT_ID><ELEMENT_SET_NO>999</ELEMENT_SET_NO><REV_AT_EPOCH>35383</REV_AT_EPOCH><BSTAR>.26501E-3</BSTAR><MEAN_MOTION_DOT>.762E-5</MEAN_MOTION_DOT><MEAN_MOTION_DDOT>0</MEAN_MOTION_DDOT></tleParameters></data></segment></body></omm>
<omm id="CCSDS_OMM_VERS" version="2.0">
<header><CREATION_DATE/><ORIGINATOR/></header><body><segment><metadata><OBJECT_NAME>IRIDIUM 137</OBJECT_NAME><OBJECT_ID>2017-083G</OBJECT_ID><CENTER_NAME>EARTH</CENTER_NAME><REF_FRAME>TEME</REF_FRAME><TIME_SYSTEM>UTC</TIME_SYSTEM><MEAN_ELEMENT_THEORY>SGP4</MEAN_ELEMENT_THEORY></metadata><data><meanElements><EPOCH>2024-09-24T10:21:19.187712</EPOCH><MEAN_MOTION>14.34216301</MEAN_MOTION><ECCENTRICITY>.0002799</ECCENTRICITY><INCLINATION>86.3984</INCLINATION><RA_OF_ASC_NODE>225.6889</RA_OF_ASC_NODE><ARG_OF_PERICENTER>83.8609</ARG_OF_PERICENTER><MEAN_ANOMALY>276.2906</MEAN_ANOMALY></meanElements><tleParameters><EPHEMERIS_TYPE>0</EPHEMERIS_TYPE><CLASSIFICATION_TYPE>U</CLASSIFICATION_TYPE><NORAD_CAT_ID>43076</NORAD_CAT_ID><ELEMENT_SET_NO>999</ELEMENT_SET_NO><REV_AT_EPOCH>35376</REV_AT_EPOCH><BSTAR>.25406E-3</BSTAR><MEAN_MOTION_DOT>.731E-5</MEAN_MOTION_DOT><MEAN_MOTION_DDOT>0</MEAN_MOTION_DDOT></tleParameters></data></segment></body></omm>
<omm id="CCSDS_OMM_VERS" version="2.0">
<header><CREATION_DATE/><ORIGINATOR/></header><body><segment><metadata><OBJECT_NAME>IRIDIUM 141</OBJECT_NAME><OBJECT_ID>2017-083H</OBJECT_ID><CENTER_NAME>EARTH</CENTER_NAME><REF_FRAME>TEME</REF_FRAME><TIME_SYSTEM>UTC</TIME_SYSTEM><MEAN_ELEMENT_THEORY>SGP4</MEAN_ELEMENT_THEORY></metadata><data><meanElements><EPOCH>2024-09-25T09:38:43.832544</EPOCH><MEAN_MOTION>14.34219595</MEAN_MOTION><ECCENTRICITY>.000219</ECCENTRICITY><INCLINATION>86.3981</INCLINATION><RA_OF_ASC_NODE>225.1501</RA_OF_ASC_NODE><ARG_OF_PERICENTER>84.3984</ARG_OF_PERICENTER><MEAN_ANOMALY>275.7462</MEAN_ANOMALY></meanElements><tleParameters><EPHEMERIS_TYPE>0</EPHEMERIS_TYPE><CLASSIFICATION_TYPE>U</CLASSIFICATION_TYPE><NORAD_CAT_ID>43077</NORAD_CAT_ID><ELEMENT_SET_NO>999</ELEMENT_SET_NO><REV_AT_EPOCH>35390</REV_AT_EPOCH><BSTAR>.29393E-3</BSTAR><MEAN_MOTION_DOT>.843E-5</MEAN_MOTION_DOT><MEAN_MOTION_DDOT>0</MEAN_MOTION_DDOT></tleParameters></data></segment></body></omm>
<omm id="CCSDS_OMM_VERS" version="2.0">
<header><CREATION_DATE/><ORIGINATOR/></header><body><segment><metadata><OBJECT_NAME>IRIDIUM 153</OBJECT_NAME><OBJECT_ID>2017-083J</OBJECT_ID><CENTER_NAME>EARTH</CENTER_NAME><REF_FRAME>TEME</REF_FRAME><TIME_SYSTEM>UTC</TIME_SYSTEM><MEAN_ELEMENT_THEORY>SGP4</MEAN_ELEMENT_THEORY></metadata><data><meanElements><EPOCH>2024-09-25T01:47:59.405568</EPOCH><MEAN_MOTION>14.34219624</MEAN_MOTION><ECCENTRICITY>.0001846</ECCENTRICITY><INCLINATION>86.4040</INCLINATION><RA_OF_ASC_NODE>193.8034</RA_OF_ASC_NODE><ARG_OF_PERICENTER>70.1167</ARG_OF_PERICENTER><MEAN_ANOMALY>290.0227</MEAN_ANOMALY></meanElements><tleParameters><EPHEMERIS_TYPE>0</EPHEMERIS_TYPE><CLASSIFICATION_TYPE>U</CLASSIFICATION_TYPE><NORAD_CAT_ID>43078</NORAD_CAT_ID><ELEMENT_SET_NO>999</ELEMENT_SET_NO><REV_AT_EPOCH>35496</REV_AT_EPOCH><BSTAR>.26506E-3</BSTAR><MEAN_MOTION_DOT>.762E-5</MEAN_MOTION_DOT><MEAN_MOTION_DDOT>0</MEAN_MOTION_DDOT></tleParameters></data></segment></body></omm>
<omm id="CCSDS_OMM_VERS" version="2.0">
<header><CREATION_DATE/><ORIGINATOR/></header><body><segment><metadata><OBJECT_NAME>IRIDIUM 131</OBJECT_NAME><OBJECT_ID>2017-083K</OBJECT_ID><CENTER_NAME>EARTH</CENTER_NAME><REF_FRAME>TEME</REF_FRAME><TIME_SYSTEM>UTC</TIME_SYSTEM><MEAN_ELEMENT_THEORY>SGP4</MEAN_ELEMENT_THEORY></metadata><data><meanElements><EPOCH>2024-09-24T14:55:18.650496</EPOCH><MEAN_MOTION>14.34219087</MEAN_MOTION><ECCENTRICITY>.0002368</ECCENTRICITY><INCLINATION>86.3984</INCLINATION><RA_OF_ASC_NODE>225.6198</RA_OF_ASC_NODE><ARG_OF_PERICENTER>84.7314</ARG_OF_PERICENTER><MEAN_ANOMALY>275.4152</MEAN_ANOMALY></meanElements><tleParameters><EPHEMERIS_TYPE>0</EPHEMERIS_TYPE><CLASSIFICATION_TYPE>U</CLASSIFICATION_TYPE><NORAD_CAT_ID>43079</NORAD_CAT_ID><ELEMENT_SET_NO>999</ELEMENT_SET_NO><REV_AT_EPOCH>35372</REV_AT_EPOCH><BSTAR>.26983E-3</BSTAR><MEAN_MOTION_DOT>.776E-5</MEAN_MOTION_DOT><MEAN_MOTION_DDOT>0</MEAN_MOTION_DDOT></tleParameters></data></segment></body></omm>

</ndm>
