IRIDIUM 116             
1 43072U 17083C   24268.85642285  .00000470  00000+0  16086-3 0  9991
2 43072  86.3978 225.3887 0002297  88.4313 271.7146 14.34217141353828
IRIDIUM 130             
1 43073U 17083D   24268.82470869  .00000507  00000+0  17399-3 0  9995
2 43073  86.3986 225.6156 0002263  91.2578 268.8878 14.34216985353765
IRIDIUM 151             
1 43074U 17083E   24269.42725509  .00000379  00000+0  12838-3 0  9997
2 43074  86.3983 225.1936 0002386  82.3517 277.7950 14.34217161353873
IRIDIUM 134             
1 43075U 17083F   24269.39554443  .00000762  00000+0  26501-3 0  9999
2 43075  86.3984 225.2063 0002290  89.9439 270.2019 14.34219734353835
IRIDIUM 137             
1 43076U 17083G   24268.43147208  .00000731  00000+0  25406-3 0  9990
2 43076  86.3984 225.6889 0002799  83.8609 276.2906 14.34216301353762
IRIDIUM 141             
1 43077U 17083H   24269.40189621  .00000843  00000+0  29393-3 0  9997
2 43077  86.3981 225.1501 0002190  84.3984 275.7462 14.34219595353908
IRIDIUM 153             
1 43078U 17083J   24269.07499312  .00000762  00000+0  26506-3 0  9995
2 43078  86.4040 193.8034 0001846  70.1167 290.0227 14.34219624354960
IRIDIUM 131             
1 43079U 17083K   24268.62174364  .00000776  00000+0  26983-3 0  9997
2 43079  86.3984 225.6198 0002368  84.7314 275.4152 14.34219087353727
